[{"OBJECT_NAME":"COSMOS 2242","OBJECT_ID":"1993-024A","EPOCH":"2026-03-05T14:58:48.084960","MEAN_MOTION":14.96528853,"ECCENTRICITY":0.0015446,"INCLINATION":82.5151,"RA_OF_ASC_NODE":270.6064,"ARG_OF_PERICENTER":323.5049,"MEAN_ANOMALY":36.5119,"EPHEMERIS_TYPE":0,"CLASSIFICATION_TYPE":"U","NORAD_CAT_ID":22626,"ELEMENT_SET_NO":999,"REV_AT_EPOCH":77978,"BSTAR":0.00021662,"MEAN_MOTION_DOT":2.493e-5,"MEAN_MOTION_DDOT":0},{"OBJECT_NAME":"SL-16 R/B","OBJECT_ID":"1993-059B","EPOCH":"2026-03-05T22:44:53.530656","MEAN_MOTION":14.17232136,"ECCENTRICITY":0.0018715,"INCLINATION":70.9923,"RA_OF_ASC_NODE":19.016,"ARG_OF_PERICENTER":221.8806,"MEAN_ANOMALY":138.0887,"EPHEMERIS_TYPE":0,"CLASSIFICATION_TYPE":"U","NORAD_CAT_ID":22803,"ELEMENT_SET_NO":999,"REV_AT_EPOCH":67900,"BSTAR":-3.2480892e-5,"MEAN_MOTION_DOT":-1.14e-6,"MEAN_MOTION_DDOT":0},{"OBJECT_NAME":"ARIANE 40 R/B","OBJECT_ID":"1993-061H","EPOCH":"2026-03-05T17:14:15.351072","MEAN_MOTION":14.32858647,"ECCENTRICITY":0.00096201,"INCLINATION":98.4923,"RA_OF_ASC_NODE":133.684,"ARG_OF_PERICENTER":298.2066,"MEAN_ANOMALY":61.8146,"EPHEMERIS_TYPE":0,"CLASSIFICATION_TYPE":"U","NORAD_CAT_ID":22830,"ELEMENT_SET_NO":999,"REV_AT_EPOCH":69353,"BSTAR":0.00012174248,"MEAN_MOTION_DOT":2.89e-6,"MEAN_MOTION_DDOT":0},{"OBJECT_NAME":"COSMOS 2278","OBJECT_ID":"1994-023A","EPOCH":"2026-03-05T16:59:23.705664","MEAN_MOTION":14.14377027,"ECCENTRICITY":0.00077632,"INCLINATION":71.0546,"RA_OF_ASC_NODE":183.4267,"ARG_OF_PERICENTER":21.1565,"MEAN_ANOMALY":338.9877,"EPHEMERIS_TYPE":0,"CLASSIFICATION_TYPE":"U","NORAD_CAT_ID":23087,"ELEMENT_SET_NO":999,"REV_AT_EPOCH":64424,"BSTAR":0.00016397945,"MEAN_MOTION_DOT":2.67e-6,"MEAN_MOTION_DDOT":0},{"OBJECT_NAME":"SL-16 R/B","OBJECT_ID":"1994-023B","EPOCH":"2026-03-05T11:21:41.506848","MEAN_MOTION":14.15013187,"ECCENTRICITY":0.0005672,"INCLINATION":70.9986,"RA_OF_ASC_NODE":79.7425,"ARG_OF_PERICENTER":289.7929,"MEAN_ANOMALY":70.2581,"EPHEMERIS_TYPE":0,"CLASSIFICATION_TYPE":"U","NORAD_CAT_ID":23088,"ELEMENT_SET_NO":999,"REV_AT_EPOCH":64549,"BSTAR":-5.4485e-5,"MEAN_MOTION_DOT":-1.53e-6,"MEAN_MOTION_DDOT":0},{"OBJECT_NAME":"SL-16 R/B","OBJECT_ID":"1994-074B","EPOCH":"2026-03-06T00:07:45.753024","MEAN_MOTION":14.79402649,"ECCENTRICITY":0.00055292,"INCLINATION":97.7113,"RA_OF_ASC_NODE":95.9723,"ARG_OF_PERICENTER":224.6064,"MEAN_ANOMALY":194.3981,"EPHEMERIS_TYPE":0,"CLASSIFICATION_TYPE":"U","NORAD_CAT_ID":23343,"ELEMENT_SET_NO":999,"REV_AT_EPOCH":68670,"BSTAR":8.4177767e-5,"MEAN_MOTION_DOT":5.78e-6,"MEAN_MOTION_DDOT":0},{"OBJECT_NAME":"SL-16 R/B","OBJECT_ID":"1994-077B","EPOCH":"2026-03-05T22:49:53.198688","MEAN_MOTION":14.15561521,"ECCENTRICITY":0.00033153,"INCLINATION":70.9852,"RA_OF_ASC_NODE":0.3529,"ARG_OF_PERICENTER":217.4117,"MEAN_ANOMALY":142.6775,"EPHEMERIS_TYPE":0,"CLASSIFICATION_TYPE":"U","NORAD_CAT_ID":23405,"ELEMENT_SET_NO":999,"REV_AT_EPOCH":61570,"BSTAR":-8.4263974e-5,"MEAN_MOTION_DOT":-2.13e-6,"MEAN_MOTION_DDOT":0},{"OBJECT_NAME":"ARIANE 40+ R/B","OBJECT_ID":"1995-021B","EPOCH":"2026-03-05T17:25:45.400224","MEAN_MOTION":14.3976927,"ECCENTRICITY":0.00074727,"INCLINATION":98.4505,"RA_OF_ASC_NODE":136.2624,"ARG_OF_PERICENTER":147.1612,"MEAN_ANOMALY":323.9586,"EPHEMERIS_TYPE":0,"CLASSIFICATION_TYPE":"U","NORAD_CAT_ID":23561,"ELEMENT_SET_NO":999,"REV_AT_EPOCH":61867,"BSTAR":0.00014888555,"MEAN_MOTION_DOT":4.23e-6,"MEAN_MOTION_DDOT":0},{"OBJECT_NAME":"SL-16 R/B","OBJECT_ID":"1995-058B","EPOCH":"2026-03-05T17:54:25.058304","MEAN_MOTION":14.15493138,"ECCENTRICITY":0.00109693,"INCLINATION":71.0213,"RA_OF_ASC_NODE":188.5336,"ARG_OF_PERICENTER":132.7336,"MEAN_ANOMALY":227.4712,"EPHEMERIS_TYPE":0,"CLASSIFICATION_TYPE":"U","NORAD_CAT_ID":23705,"ELEMENT_SET_NO":999,"REV_AT_EPOCH":56729,"BSTAR":8.5534039e-5,"MEAN_MOTION_DOT":1.2e-6,"MEAN_MOTION_DDOT":0},{"OBJECT_NAME":"SL-16 R/B","OBJECT_ID":"1996-051B","EPOCH":"2026-03-05T16:54:08.274816","MEAN_MOTION":14.12414504,"ECCENTRICITY":0.00154223,"INCLINATION":70.7599,"RA_OF_ASC_NODE":183.6736,"ARG_OF_PERICENTER":154.065,"MEAN_ANOMALY":206.1246,"EPHEMERIS_TYPE":0,"CLASSIFICATION_TYPE":"U","NORAD_CAT_ID":24298,"ELEMENT_SET_NO":999,"REV_AT_EPOCH":52108,"BSTAR":9.2989771e-5,"MEAN_MOTION_DOT":1.23e-6,"MEAN_MOTION_DDOT":0},{"OBJECT_NAME":"ORBVIEW 2 (SEASTAR)","OBJECT_ID":"1997-037A","EPOCH":"2026-03-05T22:23:12.656832","MEAN_MOTION":14.35491444,"ECCENTRICITY":0.00031464,"INCLINATION":98.8559,"RA_OF_ASC_NODE":229.1451,"ARG_OF_PERICENTER":79.4139,"MEAN_ANOMALY":280.7399,"EPHEMERIS_TYPE":0,"CLASSIFICATION_TYPE":"U","NORAD_CAT_ID":24883,"ELEMENT_SET_NO":999,"REV_AT_EPOCH":50793,"BSTAR":0.00015218956,"MEAN_MOTION_DOT":3.91e-6,"MEAN_MOTION_DDOT":0},{"OBJECT_NAME":"SL-16 R/B","OBJECT_ID":"1998-043G","EPOCH":"2026-03-05T20:56:33.881568","MEAN_MOTION":14.260486,"ECCENTRICITY":0.00103904,"INCLINATION":98.825,"RA_OF_ASC_NODE":18.2092,"ARG_OF_PERICENTER":30.9002,"MEAN_ANOMALY":329.2787,"EPHEMERIS_TYPE":0,"CLASSIFICATION_TYPE":"U","NORAD_CAT_ID":25400,"ELEMENT_SET_NO":999,"REV_AT_EPOCH":43844,"BSTAR":5.1436513e-5,"MEAN_MOTION_DOT":7.8e-7,"MEAN_MOTION_DDOT":0},{"OBJECT_NAME":"SL-16 R/B","OBJECT_ID":"1998-045B","EPOCH":"2026-03-05T16:31:14.055168","MEAN_MOTION":14.16189129,"ECCENTRICITY":0.00065037,"INCLINATION":71.0114,"RA_OF_ASC_NODE":189.9878,"ARG_OF_PERICENTER":14.109,"MEAN_ANOMALY":346.0214,"EPHEMERIS_TYPE":0,"CLASSIFICATION_TYPE":"U","NORAD_CAT_ID":25407,"ELEMENT_SET_NO":999,"REV_AT_EPOCH":42653,"BSTAR":-3.1581989e-5,"MEAN_MOTION_DOT":-1.1e-6,"MEAN_MOTION_DDOT":0},{"OBJECT_NAME":"ISS (ZARYA)","OBJECT_ID":"1998-067A","EPOCH":"2026-03-05T18:29:09.293280","MEAN_MOTION":15.48462755,"ECCENTRICITY":0.00081443,"INCLINATION":51.6317,"RA_OF_ASC_NODE":91.7338,"ARG_OF_PERICENTER":160.7168,"MEAN_ANOMALY":199.413,"EPHEMERIS_TYPE":0,"CLASSIFICATION_TYPE":"U","NORAD_CAT_ID":25544,"ELEMENT_SET_NO":999,"REV_AT_EPOCH":55572,"BSTAR":0.00015012672,"MEAN_MOTION_DOT":7.682e-5,"MEAN_MOTION_DDOT":0},{"OBJECT_NAME":"CZ-4B R/B","OBJECT_ID":"1999-025C","EPOCH":"2026-03-05T23:56:12.089760","MEAN_MOTION":14.18264489,"ECCENTRICITY":0.00369556,"INCLINATION":98.6633,"RA_OF_ASC_NODE":109.3662,"ARG_OF_PERICENTER":357.2768,"MEAN_ANOMALY":66.0772,"EPHEMERIS_TYPE":0,"CLASSIFICATION_TYPE":"U","NORAD_CAT_ID":25732,"ELEMENT_SET_NO":999,"REV_AT_EPOCH":38764,"BSTAR":4.8559036e-5,"MEAN_MOTION_DOT":5.7e-7,"MEAN_MOTION_DDOT":0},{"OBJECT_NAME":"OKEAN-O","OBJECT_ID":"1999-039A","EPOCH":"2026-03-05T17:33:25.863840","MEAN_MOTION":14.80328292,"ECCENTRICITY":0.00013798,"INCLINATION":97.9449,"RA_OF_ASC_NODE":124.6631,"ARG_OF_PERICENTER":70.3542,"MEAN_ANOMALY":289.7819,"EPHEMERIS_TYPE":0,"CLASSIFICATION_TYPE":"U","NORAD_CAT_ID":25860,"ELEMENT_SET_NO":999,"REV_AT_EPOCH":43380,"BSTAR":0.00013181602,"MEAN_MOTION_DOT":9.53e-6,"MEAN_MOTION_DDOT":0},{"OBJECT_NAME":"SL-16 R/B","OBJECT_ID":"1999-039B","EPOCH":"2026-03-05T17:09:48.266208","MEAN_MOTION":14.8172553,"ECCENTRICITY":0.0013431,"INCLINATION":97.9973,"RA_OF_ASC_NODE":123.8176,"ARG_OF_PERICENTER":270.3696,"MEAN_ANOMALY":89.5978,"EPHEMERIS_TYPE":0,"CLASSIFICATION_TYPE":"U","NORAD_CAT_ID":25861,"ELEMENT_SET_NO":999,"REV_AT_EPOCH":43627,"BSTAR":0.00011295579,"MEAN_MOTION_DOT":8.37e-6,"MEAN_MOTION_DDOT":0}]
